start=new Date('%Y-%m-27T00:00:00.000Z').valueOf();
sats=[{"ECCENTRICITY":"0.00008260","LAUNCH_DATE":"2020-08-18","SITE":"AFETR","NORAD_CAT_ID":"46138","SEMIMAJOR_AXIS":"6925.350","ELEMENT_SET_NO":"999","TLE_LINE2":"2 46138  53.0537 212.2236 0000826  50.3236 309.7826 15.06399583 55745","ARG_OF_PERICENTER":"50.3236","DECAY_DATE":null,"FILE":"3101032","CENTER_NAME":"EARTH","MEAN_MOTION_DOT":"0.00000661","REV_AT_EPOCH":"5574","RCS_SIZE":"LARGE","MEAN_ELEMENT_THEORY":"SGP4","EPOCH":"2021-08-21T21:26:39.892992","OBJECT_TYPE":"PAYLOAD","EPHEMERIS_TYPE":"0","REF_FRAME":"TEME","BSTAR":"0.00006327100000","GP_ID":"183214008","PERIOD":"95.592","APOAPSIS":"547.787","OBJECT_ID":"2020-057X","COUNTRY_CODE":"US","MEAN_MOTION_DDOT":"0.0000000000000","MEAN_ANOMALY":"309.7826","TLE_LINE1":"1 46138U 20057X   21233.89351728  .00000661  00000-0  63271-4 0  9996","RA_OF_ASC_NODE":"212.2236","TIME_SYSTEM":"UTC","CLASSIFICATION_TYPE":"U","OBJECT_NAME":"STARLINK-1590","MEAN_MOTION":"15.06399583","PERIAPSIS":"546.643","INCLINATION":"53.0537"},{"ARG_OF_PERICENTER":"71.4890","TLE_LINE2":"2 46140  53.0547 172.4163 0001587  71.4890 288.6271 15.06401206 57567","DECAY_DATE":null,"ELEMENT_SET_NO":"999","SEMIMAJOR_AXIS":"6925.345","NORAD_CAT_ID":"46140","SITE":"AFETR","LAUNCH_DATE":"2020-08-18","ECCENTRICITY":"0.00015870","EPHEMERIS_TYPE":"0","OBJECT_TYPE":"PAYLOAD","EPOCH":"2021-08-21T20:28:14.884320","BSTAR":"0.00009674300000","REF_FRAME":"TEME","CENTER_NAME":"EARTH","FILE":"3101032","MEAN_ELEMENT_THEORY":"SGP4","RCS_SIZE":"LARGE","REV_AT_EPOCH":"5756","MEAN_MOTION_DOT":"0.00001160","MEAN_ANOMALY":"288.6271","MEAN_MOTION_DDOT":"0.0000000000000","COUNTRY_CODE":"US","RA_OF_ASC_NODE":"172.4163","TLE_LINE1":"1 46140U 20057Z   21233.85295005  .00001160  00000-0  96743-4 0  9995","OBJECT_ID":"2020-057Z","PERIOD":"95.592","APOAPSIS":"548.309","GP_ID":"183214258","MEAN_MOTION":"15.06401206","OBJECT_NAME":"STARLINK-1594","INCLINATION":"53.0547","PERIAPSIS":"546.111","CLASSIFICATION_TYPE":"U","TIME_SYSTEM":"UTC"},{"OBJECT_NAME":"STARLINK-1596","MEAN_MOTION":"15.06395330","PERIAPSIS":"545.940","INCLINATION":"53.0554","TIME_SYSTEM":"UTC","CLASSIFICATION_TYPE":"U","COUNTRY_CODE":"US","MEAN_MOTION_DDOT":"0.0000000000000","MEAN_ANOMALY":"290.8671","TLE_LINE1":"1 46141U 20057AA  21233.89719210  .00000817  00000-0  73789-4 0  9992","RA_OF_ASC_NODE":"172.2158","GP_ID":"183213243","PERIOD":"95.592","APOAPSIS":"548.515","OBJECT_ID":"2020-057AA","EPOCH":"2021-08-21T21:31:57.397440","OBJECT_TYPE":"PAYLOAD","EPHEMERIS_TYPE":"0","REF_FRAME":"TEME","BSTAR":"0.00007378900000","FILE":"3101032","CENTER_NAME":"EARTH","MEAN_MOTION_DOT":"0.00000817","REV_AT_EPOCH":"5630","RCS_SIZE":"LARGE","MEAN_ELEMENT_THEORY":"SGP4","TLE_LINE2":"2 46141  53.0554 172.2158 0001859  69.2517 290.8671 15.06395330 56301","ARG_OF_PERICENTER":"69.2517","DECAY_DATE":null,"ECCENTRICITY":"0.00018590","LAUNCH_DATE":"2020-08-18","SITE":"AFETR","SEMIMAJOR_AXIS":"6925.363","NORAD_CAT_ID":"46141","ELEMENT_SET_NO":"999"},{"REF_FRAME":"TEME","BSTAR":"0.00006981600000","OBJECT_TYPE":"PAYLOAD","EPOCH":"2021-08-21T15:36:22.905504","EPHEMERIS_TYPE":"0","REV_AT_EPOCH":"5570","MEAN_MOTION_DOT":"0.00000759","MEAN_ELEMENT_THEORY":"SGP4","RCS_SIZE":"LARGE","FILE":"3101032","CENTER_NAME":"EARTH","DECAY_DATE":null,"ARG_OF_PERICENTER":"65.7251","TLE_LINE2":"2 46142  53.0554 213.3085 0001064  65.7251 294.3849 15.06395009 55704","SITE":"AFETR","LAUNCH_DATE":"2020-08-18","ECCENTRICITY":"0.00010640","ELEMENT_SET_NO":"999","SEMIMAJOR_AXIS":"6925.364","NORAD_CAT_ID":"46142","INCLINATION":"53.0554","PERIAPSIS":"546.492","OBJECT_NAME":"STARLINK-1597","MEAN_MOTION":"15.06395009","TIME_SYSTEM":"UTC","CLASSIFICATION_TYPE":"U","TLE_LINE1":"1 46142U 20057AB  21233.65026511  .00000759  00000-0  69816-4 0  9993","RA_OF_ASC_NODE":"213.3085","COUNTRY_CODE":"US","MEAN_MOTION_DDOT":"0.0000000000000","MEAN_ANOMALY":"294.3849","PERIOD":"95.592","APOAPSIS":"547.966","GP_ID":"183213260","OBJECT_ID":"2020-057AB"},{"ARG_OF_PERICENTER":"72.0802","TLE_LINE2":"2 46143  53.0543 192.2710 0001437  72.0802 288.0343 15.06392580 56026","DECAY_DATE":null,"SITE":"AFETR","ECCENTRICITY":"0.00014370","LAUNCH_DATE":"2020-08-18","ELEMENT_SET_NO":"999","SEMIMAJOR_AXIS":"6925.371","NORAD_CAT_ID":"46143","OBJECT_TYPE":"PAYLOAD","EPOCH":"2021-08-21T21:13:22.835712","EPHEMERIS_TYPE":"0","REF_FRAME":"TEME","BSTAR":"-0.00003570600000","FILE":"3101032","CENTER_NAME":"EARTH","REV_AT_EPOCH":"5602","MEAN_MOTION_DOT":"-0.00000813","MEAN_ELEMENT_THEORY":"SGP4","RCS_SIZE":"LARGE","COUNTRY_CODE":"US","MEAN_MOTION_DDOT":"0.0000000000000","MEAN_ANOMALY":"288.0343","TLE_LINE1":"1 46143U 20057AC  21233.88429208 -.00000813  00000-0 -35706-4 0  9993","RA_OF_ASC_NODE":"192.2710","PERIOD":"95.593","APOAPSIS":"548.231","GP_ID":"183213508","OBJECT_ID":"2020-057AC","OBJECT_NAME":"STARLINK-1599","MEAN_MOTION":"15.06392580","INCLINATION":"53.0543","PERIAPSIS":"546.241","TIME_SYSTEM":"UTC","CLASSIFICATION_TYPE":"U"},{"PERIAPSIS":"546.572","INCLINATION":"53.0542","MEAN_MOTION":"15.06373900","OBJECT_NAME":"STARLINK-1606","CLASSIFICATION_TYPE":"U","TIME_SYSTEM":"UTC","RA_OF_ASC_NODE":"192.2849","TLE_LINE1":"1 46144U 20057AD  21233.88060854  .00005176  00000-0  36636-3 0  9999","MEAN_MOTION_DDOT":"0.0000000000000","MEAN_ANOMALY":"314.8158","COUNTRY_CODE":"US","OBJECT_ID":"2020-057AD","GP_ID":"183214759","APOAPSIS":"548.015","PERIOD":"95.594","BSTAR":"0.00036636000000","REF_FRAME":"TEME","EPHEMERIS_TYPE":"0","EPOCH":"2021-08-21T21:08:04.577856","OBJECT_TYPE":"PAYLOAD","RCS_SIZE":"LARGE","MEAN_ELEMENT_THEORY":"SGP4","MEAN_MOTION_DOT":"0.00005176","REV_AT_EPOCH":"4427","CENTER_NAME":"EARTH","FILE":"3101032","DECAY_DATE":null,"TLE_LINE2":"2 46144  53.0542 192.2849 0001042  45.2916 314.8158 15.06373900 44270","ARG_OF_PERICENTER":"45.2916","SEMIMAJOR_AXIS":"6925.429","NORAD_CAT_ID":"46144","ELEMENT_SET_NO":"999","ECCENTRICITY":"0.00010420","LAUNCH_DATE":"2020-08-18","SITE":"AFETR"},{"TIME_SYSTEM":"UTC","CLASSIFICATION_TYPE":"U","OBJECT_NAME":"STARLINK-1607","MEAN_MOTION":"15.71515733","PERIAPSIS":"353.870","INCLINATION":"53.0522","GP_ID":"183213744","PERIOD":"91.631","APOAPSIS":"355.263","OBJECT_ID":"2020-057AE","COUNTRY_CODE":"US","MEAN_MOTION_DDOT":"0.0000000000000","MEAN_ANOMALY":"248.7932","TLE_LINE1":"1 46145U 20057AE  21233.89512855  .00144488  00000-0  10913-2 0  9993","RA_OF_ASC_NODE":"181.1769","FILE":"3101032","CENTER_NAME":"EARTH","MEAN_MOTION_DOT":"0.00144488","REV_AT_EPOCH":"5744","RCS_SIZE":"LARGE","MEAN_ELEMENT_THEORY":"SGP4","EPOCH":"2021-08-21T21:28:59.106720","OBJECT_TYPE":"PAYLOAD","EPHEMERIS_TYPE":"0","REF_FRAME":"TEME","BSTAR":"0.00109130000000","LAUNCH_DATE":"2020-08-18","ECCENTRICITY":"0.00010350","SITE":"AFETR","NORAD_CAT_ID":"46145","SEMIMAJOR_AXIS":"6732.701","ELEMENT_SET_NO":"999","TLE_LINE2":"2 46145  53.0522 181.1769 0001035 111.3196 248.7932 15.71515733 57446","ARG_OF_PERICENTER":"111.3196","DECAY_DATE":null},{"DECAY_DATE":null,"TLE_LINE2":"2 46146  53.0546 213.2772 0000902  51.7520 308.3550 15.06385378 55719","ARG_OF_PERICENTER":"51.7520","ECCENTRICITY":"0.00009020","LAUNCH_DATE":"2020-08-18","SITE":"AFETR","SEMIMAJOR_AXIS":"6925.393","NORAD_CAT_ID":"46146","ELEMENT_SET_NO":"999","REF_FRAME":"TEME","BSTAR":"0.00005827100000","EPOCH":"2021-08-21T15:52:16.049568","OBJECT_TYPE":"PAYLOAD","EPHEMERIS_TYPE":"0","MEAN_MOTION_DOT":"0.00000586","REV_AT_EPOCH":"5571","RCS_SIZE":"LARGE","MEAN_ELEMENT_THEORY":"SGP4","FILE":"3101032","CENTER_NAME":"EARTH","TLE_LINE1":"1 46146U 20057AF  21233.66129687  .00000586  00000-0  58271-4 0  9997","RA_OF_ASC_NODE":"213.2772","COUNTRY_CODE":"US","MEAN_MOTION_DDOT":"0.0000000000000","MEAN_ANOMALY":"308.3550","GP_ID":"183213761","PERIOD":"95.593","APOAPSIS":"547.883","OBJECT_ID":"2020-057AF","PERIAPSIS":"546.634","INCLINATION":"53.0546","OBJECT_NAME":"STARLINK-1608","MEAN_MOTION":"15.06385378","TIME_SYSTEM":"UTC","CLASSIFICATION_TYPE":"U"},{"OBJECT_NAME":"STARLINK-1611","MEAN_MOTION":"15.06394277","INCLINATION":"53.0543","PERIAPSIS":"546.492","TIME_SYSTEM":"UTC","CLASSIFICATION_TYPE":"U","COUNTRY_CODE":"US","MEAN_MOTION_DDOT":"0.0000000000000","MEAN_ANOMALY":"316.6657","TLE_LINE1":"1 46147U 20057AG  21233.90827535  .00000589  00000-0  58409-4 0  9998","RA_OF_ASC_NODE":"212.1661","PERIOD":"95.593","APOAPSIS":"547.970","GP_ID":"183214009","OBJECT_ID":"2020-057AG","OBJECT_TYPE":"PAYLOAD","EPOCH":"2021-08-21T21:47:54.990240","EPHEMERIS_TYPE":"0","REF_FRAME":"TEME","BSTAR":"0.00005840900000","FILE":"3101032","CENTER_NAME":"EARTH","REV_AT_EPOCH":"5700","MEAN_MOTION_DOT":"0.00000589","MEAN_ELEMENT_THEORY":"SGP4","RCS_SIZE":"LARGE","ARG_OF_PERICENTER":"43.4416","TLE_LINE2":"2 46147  53.0543 212.1661 0001067  43.4416 316.6657 15.06394277 57009","DECAY_DATE":null,"SITE":"AFETR","LAUNCH_DATE":"2020-08-18","ECCENTRICITY":"0.00010670","ELEMENT_SET_NO":"999","NORAD_CAT_ID":"46147","SEMIMAJOR_AXIS":"6925.366"},{"RA_OF_ASC_NODE":"192.1367","TLE_LINE1":"1 46148U 20057AH  21233.91378510  .00000747  00000-0  69039-4 0  9991","MEAN_ANOMALY":"298.9616","MEAN_MOTION_DDOT":"0.0000000000000","COUNTRY_CODE":"US","OBJECT_ID":"2020-057AH","GP_ID":"183214259","PERIOD":"95.592","APOAPSIS":"548.147","PERIAPSIS":"546.262","INCLINATION":"53.0529","MEAN_MOTION":"15.06402892","OBJECT_NAME":"STARLINK-1616","CLASSIFICATION_TYPE":"U","TIME_SYSTEM":"UTC","DECAY_DATE":null,"TLE_LINE2":"2 46148  53.0529 192.1367 0001361  61.1510 298.9616 15.06402892 56024","ARG_OF_PERICENTER":"61.1510","SEMIMAJOR_AXIS":"6925.340","NORAD_CAT_ID":"46148","ELEMENT_SET_NO":"999","ECCENTRICITY":"0.00013610","LAUNCH_DATE":"2020-08-18","SITE":"AFETR","BSTAR":"0.00006903900000","REF_FRAME":"TEME","EPHEMERIS_TYPE":"0","EPOCH":"2021-08-21T21:55:51.032640","OBJECT_TYPE":"PAYLOAD","RCS_SIZE":"LARGE","MEAN_ELEMENT_THEORY":"SGP4","MEAN_MOTION_DOT":"0.00000747","REV_AT_EPOCH":"5602","CENTER_NAME":"EARTH","FILE":"3101032"}];
